[{"OBJECT_NAME":"YUNHAI-1 04","OBJECT_ID":"2023-159A","EPOCH":"2026-03-09T23:32:58.106976","MEAN_MOTION":14.32660643,"ECCENTRICITY":0.00021766,"INCLINATION":98.5096,"RA_OF_ASC_NODE":96.5782,"ARG_OF_PERICENTER":112.1327,"MEAN_ANOMALY":248.0088,"EPHEMERIS_TYPE":0,"CLASSIFICATION_TYPE":"U","NORAD_CAT_ID":58073,"ELEMENT_SET_NO":999,"REV_AT_EPOCH":12559,"BSTAR":0.0001354342,"MEAN_MOTION_DOT":3.25e-6,"MEAN_MOTION_DDOT":0},{"OBJECT_NAME":"COSMOS 1867 COOLANT","OBJECT_ID":"1987-060AH","EPOCH":"2026-03-09T01:07:12.720000","MEAN_MOTION":14.33923572,"ECCENTRICITY":0.00137117,"INCLINATION":65.0095,"RA_OF_ASC_NODE":290.5603,"ARG_OF_PERICENTER":280.6978,"MEAN_ANOMALY":79.2563,"EPHEMERIS_TYPE":0,"CLASSIFICATION_TYPE":"U","NORAD_CAT_ID":39670,"ELEMENT_SET_NO":999,"REV_AT_EPOCH":62228,"BSTAR":0.00015571588,"MEAN_MOTION_DOT":3.35e-6,"MEAN_MOTION_DDOT":0}]
